#aV2020  4  9  0  0  0.00000000     288 DD+AD WGS84 FIT  NGA
## 2100 345600.00000000   300.00000000 58948 0.0000000000000
+   32     1  2  3  4  5  6  7  8  9 10 11 12 13 14 15 16 17
+         18 19 20 21 22 23 24 25 26 27 28 29 30 31 32  0  0
+          0  0  0  0  0  0  0  0  0  0  0  0  0  0  0  0  0
+          0  0  0  0  0  0  0  0  0  0  0  0  0  0  0  0  0
+          0  0  0  0  0  0  0  0  0  0  0  0  0  0  0  0  0
++         2  2  2  2  2  2  2  2  2  2  2  2  2  2  2  2  2
++         2  2  2  2  2  2  2  2  2  2  2  2  2  2  2  0  0
++         0  0  0  0  0  0  0  0  0  0  0  0  0  0  0  0  0
++         0  0  0  0  0  0  0  0  0  0  0  0  0  0  0  0  0
++         0  0  0  0  0  0  0  0  0  0  0  0  0  0  0  0  0
%c cc cc ccc ccc cccc cccc cccc cccc ccccc ccccc ccccc ccccc
%c cc cc ccc ccc cccc cccc cccc cccc ccccc ccccc ccccc ccccc
%f  0.0000000  0.000000000  0.00000000000  0.000000000000000
%f  0.0000000  0.000000000  0.00000000000  0.000000000000000
%i    0    0    0    0      0      0      0      0         0
%i    0    0    0    0      0      0      0      0         0
/*      NGA, ST. LOUIS,MO.                                  
/*   EPHEMERIS COMPUTED FROM 2 DAYS OF DATA                 
/*   EPOCHA v5 SMOOTHER                                     
/*   G1762 IERS2010 SATAF SATAPC                            
*  2020  4  9  5 40  0.00000000
P  1 -12562.126951  20973.026542 -10160.187251   -352.438895                    
V  1 -10771.808981   7030.439683  28749.614443     -0.109977                    
P  2  20973.596998 -12048.533446 -10255.081406   -436.347884                    
V  2  -7485.063158  12141.709494 -27915.903355     -0.064979                    
P  3  -3664.768895  14715.892426 -21861.451984   -140.553808                    
V  3 -26445.140052  -7940.853229   -816.105556     -0.107759                    
P  4  -1390.151458  24931.324570  -9002.229436    -73.693681                    
V  4  -4821.752326 -10712.845360 -28916.350501     -0.051652                    
P  5  22855.927721  -3543.024608  13096.774044    -10.539368                    
V  5  15609.854265   6633.342873 -24993.508467     -0.006657                    
P  6  19196.210588  -1229.143305 -18282.752389   -248.914879                    
V  6 -16065.643866  16865.925168 -17904.884574     -0.078487                    
P  7   4127.480422  16247.439452  20790.260542   -254.527483                    
V  7 -19787.408953  16702.929814  -9737.907340     -0.086008                    
P  8  -8349.808075  17504.530570  18048.524385    -30.008546                    
V  8  -7119.112256 -21876.536179  18190.821303     -0.012647                    
P  9   7379.619139  25468.956690   1316.127094   -194.039611                    
V  9  -2561.893555   2433.581145 -31534.502741     -0.078122                    
P 10 -23029.780290 -11726.606195   6725.712050   -304.426242                    
V 10   8694.573706    129.281073  30158.108587     -0.121628                    
P 11 -12257.684753  23198.136703   4564.641374   -310.375237                    
V 11  -1584.202620  -7382.712088  29735.209018      0.107593                    
P 12   6380.686273 -13536.684826 -22173.350548    131.322088                    
V 12  25692.224710   9915.329737   1515.998954     -0.043187                    
P 13  13275.003419  -9781.969296  20682.656888      0.668083                    
V 13   3647.265814  26296.026829  10122.955785      0.029940                    
P 14 -15386.821284  -6333.334374 -20402.570226    -20.791972                    
V 14  -3137.048779 -26468.058348  10226.547009      0.025471                    
P 15   6832.230702 -18858.501312  16912.251398   -239.238334                    
V 15   9793.540347  20229.636591  18648.246529      0.026036                    
P 16 -22495.808745   1273.931760  14201.211287   -144.508030                    
V 16 -16335.379061  -8139.745494 -24331.951309     -0.043741                    
P 17  13433.431695  16376.184395 -15634.399266    245.789464                    
V 17   2041.245533  20517.346522  22594.340094      0.060674                    
P 18   1074.113530 -18617.035897  18910.197790    149.749682                    
V 18  18801.678747 -14990.607452 -15848.064056      0.138172                    
P 19  14955.770046   8217.592599 -20653.060787   -174.530410                    
V 19   2545.164815  25375.294021  12108.311507      0.051073                    
P 20 -15286.448825 -14586.322411  16138.466366    527.825798                    
V 20  20745.167328   1019.818436  20255.573066     -0.000391                    
P 21  -5383.759900 -16277.314702  21134.565819    -16.612115                    
V 21  17543.730814 -17871.508078  -9391.559106      0.050243                    
P 22 -13041.420317  12091.606778 -19466.225590   -784.968246                    
V 22 -24478.554665  -6796.161732  12169.673030      0.004790                    
P 23   2676.812010  25596.429896  -5332.791988   -123.515657                    
V 23  -5362.814108  -6174.037328 -30630.701040      0.029305                    
P 24  12725.970220 -21823.442530  -7764.434517    -11.446156                    
V 24   9289.127980  -4621.633059  29305.646048     -0.004993                    
P 25  -6093.750099 -16467.806942 -20243.401983     -4.311780                    
V 25  24262.029375   6443.010084 -12428.691407      0.023796                    
P 26 -26070.666029  -3833.426169   4144.872880    183.962226                    
V 26  -4332.355984  -4268.142765 -30717.878363      0.073990                    
P 27 -13569.056917   6308.808674  21782.847003   -261.836091                    
V 27  -6851.011947 -27111.181278   3890.700441     -0.105350                    
P 28  22310.031115  13271.216168   5822.555354    726.769528                    
V 28  -7010.491639   -426.976102  31087.653850     -0.028506                    
P 29  -3748.738862 -26271.335173   -842.053050    -76.665473                    
V 29   2168.801313    676.547996 -32292.976562     -0.091609                    
P 30  14069.364133   8159.512030  21059.447330   -194.294871                    
V 30 -19697.408939  18056.583111   5965.341373     -0.085586                    
P 31 -20649.152649   2597.472923 -16795.433576    -34.843025                    
V 31  14691.949910 -15204.396459 -20012.369942     -0.024605                    
P 32 -15213.180497 -14726.554987 -16047.647054    255.554746                    
V 32  -2983.670838 -20341.696694  21250.746251      0.085244                    
EOF
